{"type": "FeatureCollection", "features": [ {"type": "Feature", "properties": {"norad_id": 31459, "name": "FENGYUN 1C DEB", "group": "fengyun-1c-debris", "lat": -53.617186850067604, "lon": -88.25064679226648, "alt_km": 817.3850108060415, "timestamp": "2025-12-18T10:51:26.089517+00:00", "meta": {"OBJECT_NAME": "FENGYUN 1C DEB", "OBJECT_ID": "1999-025BUX", "EPOCH": "2025-12-12T23:44:38.705568", "MEAN_MOTION": 14.44083824, "ECCENTRICITY": 0.00940456, "INCLINATION": 98.1765, "RA_OF_ASC_NODE": 255.2445, "ARG_OF_PERICENTER": 130.906, "MEAN_ANOMALY": 230.0325, "EPHEMERIS_TYPE": 0, "CLASSIFICATION_TYPE": "U", "NORAD_CAT_ID": 31459, "ELEMENT_SET_NO": 999, "REV_AT_EPOCH": 64561, "BSTAR": 0.0020176648, "MEAN_MOTION_DOT": 7.253e-05, "MEAN_MOTION_DDOT": 0}, "tle": {"line1": "1 31459U 99025BUX 25346.98933687  .00007253  00000+0  20177-2 0  9995", "line2": "2 31459  98.1765 255.2445 0094045 130.9060 230.0325 14.44083824645613"}}, "geometry": {"type": "Point", "coordinates": [-88.25064679226648, -53.617186850067604]}}, {"type": "Feature", "properties": {"norad_id": 31462, "name": "FENGYUN 1C DEB", "group": "fengyun-1c-debris", "lat": -27.789601168869186, "lon": -173.93652119987857, "alt_km": 832.8757638013376, "timestamp": "2025-12-18T10:51:26.089528+00:00", "meta": {"OBJECT_NAME": "FENGYUN 1C DEB", "OBJECT_ID": "1999-025BVA", "EPOCH": "2025-12-17T00:11:35.659104", "MEAN_MOTION": 14.13016034, "ECCENTRICITY": 0.00322795, "INCLINATION": 98.6896, "RA_OF_ASC_NODE": 9.2845, "ARG_OF_PERICENTER": 192.0461, "MEAN_ANOMALY": 232.8507, "EPHEMERIS_TYPE": 0, "CLASSIFICATION_TYPE": "U", "NORAD_CAT_ID": 31462, "ELEMENT_SET_NO": 999, "REV_AT_EPOCH": 95916, "BSTAR": 0.00031044723, "MEAN_MOTION_DOT": 5.39e-06, "MEAN_MOTION_DDOT": 0}, "tle": {"line1": "1 31462U 99025BVA 25351.00805161  .00000539  00000+0  31045-3 0  9990", "line2": "2 31462  98.6896   9.2845 0032279 192.0461 232.8507 14.13016034959168"}}, "geometry": {"type": "Point", "coordinates": [-173.93652119987857, -27.789601168869186]}}, {"type": "Feature", "properties": {"norad_id": 31463, "name": "FENGYUN 1C DEB", "group": "fengyun-1c-debris", "lat": -56.26629921899763, "lon": -11.687641879195194, "alt_km": 747.0329295840147, "timestamp": "2025-12-18T10:51:26.089538+00:00", "meta": {"OBJECT_NAME": "FENGYUN 1C DEB", "OBJECT_ID": "1999-025BVB", "EPOCH": "2025-12-17T05:02:14.245440", "MEAN_MOTION": 14.36964853, "ECCENTRICITY": 0.02135653, "INCLINATION": 99.0801, "RA_OF_ASC_NODE": 333.1449, "ARG_OF_PERICENTER": 26.7734, "MEAN_ANOMALY": 334.4288, "EPHEMERIS_TYPE": 0, "CLASSIFICATION_TYPE": "U", "NORAD_CAT_ID": 31463, "ELEMENT_SET_NO": 999, "REV_AT_EPOCH": 64784, "BSTAR": 0.00042071423, "MEAN_MOTION_DOT": 1.563e-05, "MEAN_MOTION_DDOT": 0}, "tle": {"line1": "1 31463U 99025BVB 25351.20988710  .00001563  00000+0  42071-3 0  9994", "line2": "2 31463  99.0801 333.1449 0213565  26.7734 334.4288 14.36964853647844"}}, "geometry": {"type": "Point", "coordinates": [-11.687641879195194, -56.26629921899763]}}, {"type": "Feature", "properties": {"norad_id": 31464, "name": "FENGYUN 1C DEB", "group": "fengyun-1c-debris", "lat": 39.31680920690447, "lon": -133.58557345026858, "alt_km": 845.3780181567436, "timestamp": "2025-12-18T10:51:26.089548+00:00", "meta": {"OBJECT_NAME": "FENGYUN 1C DEB", "OBJECT_ID": "1999-025BVC", "EPOCH": "2025-12-17T21:26:19.859424", "MEAN_MOTION": 14.12482358, "ECCENTRICITY": 0.00433522, "INCLINATION": 98.7942, "RA_OF_ASC_NODE": 38.5822, "ARG_OF_PERICENTER": 227.3881, "MEAN_ANOMALY": 311.7438, "EPHEMERIS_TYPE": 0, "CLASSIFICATION_TYPE": "U", "NORAD_CAT_ID": 31464, "ELEMENT_SET_NO": 999, "REV_AT_EPOCH": 94752, "BSTAR": 0.00027806813, "MEAN_MOTION_DOT": 4.74e-06, "MEAN_MOTION_DDOT": 0}, "tle": {"line1": "1 31464U 99025BVC 25351.89328541  .00000474  00000+0  27807-3 0  9990", "line2": "2 31464  98.7942  38.5822 0043352 227.3881 311.7438 14.12482358947527"}}, "geometry": {"type": "Point", "coordinates": [-133.58557345026858, 39.31680920690447]}}, {"type": "Feature", "properties": {"norad_id": 31466, "name": "FENGYUN 1C DEB", "group": "fengyun-1c-debris", "lat": 24.141505155797272, "lon": 106.66702406481471, "alt_km": 984.680364690058, "timestamp": "2025-12-18T10:51:26.089561+00:00", "meta": {"OBJECT_NAME": "FENGYUN 1C DEB", "OBJECT_ID": "1999-025BVE", "EPOCH": "2025-12-16T02:14:17.384928", "MEAN_MOTION": 14.1852535, "ECCENTRICITY": 0.02990788, "INCLINATION": 99.0889, "RA_OF_ASC_NODE": 280.1326, "ARG_OF_PERICENTER": 299.2838, "MEAN_ANOMALY": 57.8749, "EPHEMERIS_TYPE": 0, "CLASSIFICATION_TYPE": "U", "NORAD_CAT_ID": 31466, "ELEMENT_SET_NO": 999, "REV_AT_EPOCH": 96376, "BSTAR": 0.00020920335, "MEAN_MOTION_DOT": 6.16e-06, "MEAN_MOTION_DDOT": 0}, "tle": {"line1": "1 31466U 99025BVE 25350.09325677  .00000616  00000+0  20920-3 0  9997", "line2": "2 31466  99.0889 280.1326 0299078 299.2838  57.8749 14.18525350963768"}}, "geometry": {"type": "Point", "coordinates": [106.66702406481471, 24.141505155797272]}}, {"type": "Feature", "properties": {"norad_id": 31468, "name": "FENGYUN 1C DEB", "group": "fengyun-1c-debris", "lat": 81.08913441449035, "lon": -125.29458382401317, "alt_km": 661.3538191103598, "timestamp": "2025-12-18T10:51:26.089573+00:00", "meta": {"OBJECT_NAME": "FENGYUN 1C DEB", "OBJECT_ID": "1999-025BVG", "EPOCH": "2025-12-15T17:40:52.277088", "MEAN_MOTION": 14.46598121, "ECCENTRICITY": 0.01665536, "INCLINATION": 98.1678, "RA_OF_ASC_NODE": 345.7354, "ARG_OF_PERICENTER": 157.6429, "MEAN_ANOMALY": 203.2135, "EPHEMERIS_TYPE": 0, "CLASSIFICATION_TYPE": "U", "NORAD_CAT_ID": 31468, "ELEMENT_SET_NO": 999, "REV_AT_EPOCH": 67415, "BSTAR": 0.00027310227, "MEAN_MOTION_DOT": 1.122e-05, "MEAN_MOTION_DDOT": 0}, "tle": {"line1": "1 31468U 99025BVG 25349.73671617  .00001122  00000+0  27310-3 0  9999", "line2": "2 31468  98.1678 345.7354 0166553 157.6429 203.2135 14.46598121674154"}}, "geometry": {"type": "Point", "coordinates": [-125.29458382401317, 81.08913441449035]}}, {"type": "Feature", "properties": {"norad_id": 31473, "name": "FENGYUN 1C DEB", "group": "fengyun-1c-debris", "lat": -75.75249036948563, "lon": 169.09754993679536, "alt_km": 806.8816949528991, "timestamp": "2025-12-18T10:51:26.089584+00:00", "meta": {"OBJECT_NAME": "FENGYUN 1C DEB", "OBJECT_ID": "1999-025BVM", "EPOCH": "2025-12-17T14:12:00.142848", "MEAN_MOTION": 14.29820518, "ECCENTRICITY": 0.00646517, "INCLINATION": 98.5458, "RA_OF_ASC_NODE": 24.5641, "ARG_OF_PERICENTER": 0.4405, "MEAN_ANOMALY": 150.9357, "EPHEMERIS_TYPE": 0, "CLASSIFICATION_TYPE": "U", "NORAD_CAT_ID": 31473, "ELEMENT_SET_NO": 999, "REV_AT_EPOCH": 69590, "BSTAR": 0.0010992341, "MEAN_MOTION_DOT": 2.848e-05, "MEAN_MOTION_DDOT": 0}, "tle": {"line1": "1 31473U 99025BVM 25351.59166832  .00002848  00000+0  10992-2 0  9993", "line2": "2 31473  98.5458  24.5641 0064651   0.4405 150.9357 14.29820518695905"}}, "geometry": {"type": "Point", "coordinates": [169.09754993679536, -75.75249036948563]}}, {"type": "Feature", "properties": {"norad_id": 31474, "name": "FENGYUN 1C DEB", "group": "fengyun-1c-debris", "lat": 30.52197242212487, "lon": -136.14138890495477, "alt_km": 816.4307845324101, "timestamp": "2025-12-18T10:51:26.089594+00:00", "meta": {"OBJECT_NAME": "FENGYUN 1C DEB", "OBJECT_ID": "1999-025BVN", "EPOCH": "2025-12-17T20:31:53.420160", "MEAN_MOTION": 14.10616871, "ECCENTRICITY": 0.00720818, "INCLINATION": 99.1448, "RA_OF_ASC_NODE": 37.8022, "ARG_OF_PERICENTER": 192.292, "MEAN_ANOMALY": 167.6494, "EPHEMERIS_TYPE": 0, "CLASSIFICATION_TYPE": "U", "NORAD_CAT_ID": 31474, "ELEMENT_SET_NO": 999, "REV_AT_EPOCH": 95042, "BSTAR": 0.0012018353, "MEAN_MOTION_DOT": 2.151e-05, "MEAN_MOTION_DDOT": 0}, "tle": {"line1": "1 31474U 99025BVN 25351.85547940  .00002151  00000+0  12018-2 0  9994", "line2": "2 31474  99.1448  37.8022 0072081 192.2920 167.6494 14.10616871950423"}}, "geometry": {"type": "Point", "coordinates": [-136.14138890495477, 30.52197242212487]}}, {"type": "Feature", "properties": {"norad_id": 31475, "name": "FENGYUN 1C DEB", "group": "fengyun-1c-debris", "lat": -49.21110421486472, "lon": -108.10568073170697, "alt_km": 886.213568635113, "timestamp": "2025-12-18T10:51:26.089605+00:00", "meta": {"OBJECT_NAME": "FENGYUN 1C DEB", "OBJECT_ID": "1999-025BVP", "EPOCH": "2025-12-17T11:43:04.748160", "MEAN_MOTION": 14.38222265, "ECCENTRICITY": 0.02117672, "INCLINATION": 98.9397, "RA_OF_ASC_NODE": 240.3791, "ARG_OF_PERICENTER": 93.1559, "MEAN_ANOMALY": 269.3879, "EPHEMERIS_TYPE": 0, "CLASSIFICATION_TYPE": "U", "NORAD_CAT_ID": 31475, "ELEMENT_SET_NO": 999, "REV_AT_EPOCH": 96147, "BSTAR": 0.00046650595, "MEAN_MOTION_DOT": 1.785e-05, "MEAN_MOTION_DDOT": 0}, "tle": {"line1": "1 31475U 99025BVP 25351.48824940  .00001785  00000+0  46651-3 0  9995", "line2": "2 31475  98.9397 240.3791 0211767  93.1559 269.3879 14.38222265961475"}}, "geometry": {"type": "Point", "coordinates": [-108.10568073170697, -49.21110421486472]}}, {"type": "Feature", "properties": {"norad_id": 31476, "name": "FENGYUN 1C DEB", "group": "fengyun-1c-debris", "lat": 43.000800363188276, "lon": -105.60030642059087, "alt_km": 778.510388893138, "timestamp": "2025-12-18T10:51:26.089615+00:00", "meta": {"OBJECT_NAME": "FENGYUN 1C DEB", "OBJECT_ID": "1999-025BVQ", "EPOCH": "2025-12-17T03:49:29.142048", "MEAN_MOTION": 14.22131431, "ECCENTRICITY": 0.00531385, "INCLINATION": 98.8969, "RA_OF_ASC_NODE": 64.6961, "ARG_OF_PERICENTER": 159.7768, "MEAN_ANOMALY": 200.553, "EPHEMERIS_TYPE": 0, "CLASSIFICATION_TYPE": "U", "NORAD_CAT_ID": 31476, "ELEMENT_SET_NO": 999, "REV_AT_EPOCH": 95762, "BSTAR": 0.0012132445, "MEAN_MOTION_DOT": 2.682e-05, "MEAN_MOTION_DDOT": 0}, "tle": {"line1": "1 31476U 99025BVQ 25351.15936507  .00002682  00000+0  12132-2 0  9996", "line2": "2 31476  98.8969  64.6961 0053138 159.7768 200.5530 14.22131431957623"}}, "geometry": {"type": "Point", "coordinates": [-105.60030642059087, 43.000800363188276]}}]}